48974,ONEWEB-0256,2021,109.37,148.0,+,87.91,Active,1,LEO,Russia,UK,Commercial,Communications,Soyuz,1 48974U 21060H   24045.47247453  .00000022  00000+0  22824-4 0  9997,2 48974  87.9057  38.6894 0001956  92.2806 267.8549 13.16592263127296,13.16592263,0.0001956,LEO
48975,ONEWEB-0257,2021,109.37,148.0,+,87.91,Active,1,LEO,Russia,UK,Commercial,Communications,Soyuz,1 48975U 21060J   24045.50490983  .00000110  00000+0  25419-3 0  9990,2 48975  87.9054  38.6572 0002041  88.8407 271.2957 13.16595804127253,13.16595804,0.0002041,LEO
48976,ONEWEB-0258,2021,109.37,148.0,+,87.91,Active,1,LEO,Russia,UK,Commercial,Communications,Soyuz,1 48976U 21060K   24045.50650737  .00000152  00000+0  36341-3 0  9998,2 48976  87.9055  38.6859 0001809  85.3532 274.7805 13.16594559127262,13.16594559,0.0001809,LEO
48977,ONEWEB-0259,2021,109.37,148.0,+,87.91,Active,1,LEO,Russia,UK,Commercial,Communications,Soyuz,1 48977U 21060L   24045.50017412  .00000085  00000+0  18971-3 0  9990,2 48977  87.9052  38.6721 0001787  77.1472 282.9858 13.16594314127296,13.16594314,0.0001787,LEO
48978,ONEWEB-0260,2021,109.37,148.0,+,87.91,Active,1,LEO,Russia,UK,Commercial,Communications,Soyuz,1 48978U 21060M   24045.49383997  .00000152  00000+0  36516-3 0  9993,2 48978  87.9053  38.7027 0002405  99.0677 261.0726 13.16595319127272,13.16595319,0.0002405,LEO
48979,ONEWEB-0261,2021,109.37,148.0,+,87.91,Active,1,LEO,Russia,UK,Commercial,Communications,Soyuz,1 48979U 21060N   24045.53657547 -.00000004  00000+0 -45271-4 0  9991,2 48979  87.9059  38.6838 0002385  78.2373 281.9025 13.16593693127330,13.16593693,0.0002385,LEO
48980,ONEWEB-0262,2021,109.37,148.0,+,87.91,Active,1,LEO,Russia,UK,Commercial,Communications,Soyuz,1 48980U 21060P   24045.51757988  .00000077  00000+0  16688-3 0  9998,2 48980  87.9056  38.6549 0001934  70.9281 289.2059 13.16596355127295,13.16596355,0.0001934,LEO
48981,ONEWEB-0263,2021,109.37,148.0,+,87.91,Active,1,LEO,Russia,UK,Commercial,Communications,Soyuz,1 48981U 21060Q   24045.47324302 -.00000011  00000+0 -63382-4 0  9998,2 48981  87.9058  38.6764 0002260  76.0439 284.0943 13.16595896127252,13.16595896,0.000226,LEO
